{
  "type": "FeatureCollection",
  "features": [
    {
      "type": "Feature",
      "properties": {
        "norad_id": 34641,
        "name": "COSMOS 2251 DEB",
        "group": "cosmos-2251-debris",
        "lat": -73.72140060611379,
        "lon": -40.75060314731717,
        "alt_km": 719.0278684369077,
        "timestamp": "2025-12-26T05:31:12.901368+00:00",
        "meta_object_name": "COSMOS 2251 DEB",
        "meta_object_id": "1993-036XN",
        "meta_epoch": "2025-12-25T03:37:10.772832",
        "meta_mean_motion": 14.52080579,
        "meta_eccentricity": 0.00190938,
        "meta_inclination": 73.836,
        "meta_ra_of_asc_node": 57.9813,
        "meta_arg_of_pericenter": 330.5665,
        "meta_mean_anomaly": 58.546,
        "meta_ephemeris_type": 0,
        "meta_classification_type": "U",
        "meta_norad_cat_id": 34641,
        "meta_element_set_no": 999,
        "meta_rev_at_epoch": 88436,
        "meta_bstar": 0.00073840717,
        "meta_mean_motion_dot": 2.967e-05,
        "meta_mean_motion_ddot": 0,
        "tle_line1": "1 34641U 93036XN  25359.15081913  .00002967  00000+0  73841-3 0  9990",
        "tle_line2": "2 34641  73.8360  57.9813 0019093 330.5665  58.5460 14.52080579884368"
      },
      "geometry": {
        "type": "Point",
        "coordinates": [
          -40.75060314731717,
          -73.72140060611379
        ]
      }
    },
    {
      "type": "Feature",
      "properties": {
        "norad_id": 34642,
        "name": "COSMOS 2251 DEB",
        "group": "cosmos-2251-debris",
        "lat": -57.774677643346536,
        "lon": -70.63364995110177,
        "alt_km": 1049.0840023631135,
        "timestamp": "2025-12-26T05:31:12.901378+00:00",
        "meta_object_name": "COSMOS 2251 DEB",
        "meta_object_id": "1993-036XP",
        "meta_epoch": "2025-12-24T08:05:16.562400",
        "meta_mean_motion": 13.99004253,
        "meta_eccentricity": 0.0206477,
        "meta_inclination": 74.0043,
        "meta_ra_of_asc_node": 319.7125,
        "meta_arg_of_pericenter": 136.7937,
        "meta_mean_anomaly": 350.6828,
        "meta_ephemeris_type": 0,
        "meta_classification_type": "U",
        "meta_norad_cat_id": 34642,
        "meta_element_set_no": 999,
        "meta_rev_at_epoch": 85455,
        "meta_bstar": 0.00081021111,
        "meta_mean_motion_dot": 1.383e-05,
        "meta_mean_motion_ddot": 0,
        "tle_line1": "1 34642U 93036XP  25358.33699725  .00001383  00000+0  81021-3 0  9996",
        "tle_line2": "2 34642  74.0043 319.7125 0206477 136.7937 350.6828 13.99004253854554"
      },
      "geometry": {
        "type": "Point",
        "coordinates": [
          -70.63364995110177,
          -57.774677643346536
        ]
      }
    },
    {
      "type": "Feature",
      "properties": {
        "norad_id": 34671,
        "name": "COSMOS 2251 DEB",
        "group": "cosmos-2251-debris",
        "lat": 18.82863801267172,
        "lon": 113.85581121954199,
        "alt_km": 677.3646908257178,
        "timestamp": "2025-12-26T05:31:12.901388+00:00",
        "meta_object_name": "COSMOS 2251 DEB",
        "meta_object_id": "1993-036XR",
        "meta_epoch": "2025-12-24T07:45:05.041728",
        "meta_mean_motion": 14.67129194,
        "meta_eccentricity": 0.00105725,
        "meta_inclination": 74.0275,
        "meta_ra_of_asc_node": 111.9321,
        "meta_arg_of_pericenter": 193.4023,
        "meta_mean_anomaly": 198.0562,
        "meta_ephemeris_type": 0,
        "meta_classification_type": "U",
        "meta_norad_cat_id": 34671,
        "meta_element_set_no": 999,
        "meta_rev_at_epoch": 88467,
        "meta_bstar": 0.0017522099,
        "meta_mean_motion_dot": 9.84e-05,
        "meta_mean_motion_ddot": 0,
        "tle_line1": "1 34671U 93036XR  25358.32297502  .00009840  00000+0  17522-2 0  9994",
        "tle_line2": "2 34671  74.0275 111.9321 0010572 193.4023 198.0562 14.67129194884671"
      },
      "geometry": {
        "type": "Point",
        "coordinates": [
          113.85581121954199,
          18.82863801267172
        ]
      }
    },
    {
      "type": "Feature",
      "properties": {
        "norad_id": 34672,
        "name": "COSMOS 2251 DEB",
        "group": "cosmos-2251-debris",
        "lat": 25.727494451191117,
        "lon": 92.87687522702463,
        "alt_km": 785.7384918240132,
        "timestamp": "2025-12-26T05:31:12.901398+00:00",
        "meta_object_name": "COSMOS 2251 DEB",
        "meta_object_id": "1993-036XS",
        "meta_epoch": "2025-12-23T01:39:52.431840",
        "meta_mean_motion": 14.36424251,
        "meta_eccentricity": 0.00243004,
        "meta_inclination": 74.0343,
        "meta_ra_of_asc_node": 286.6106,
        "meta_arg_of_pericenter": 356.389,
        "meta_mean_anomaly": 18.9966,
        "meta_ephemeris_type": 0,
        "meta_classification_type": "U",
        "meta_norad_cat_id": 34672,
        "meta_element_set_no": 999,
        "meta_rev_at_epoch": 65326,
        "meta_bstar": 0.00025150328,
        "meta_mean_motion_dot": 7.13e-06,
        "meta_mean_motion_ddot": 0,
        "tle_line1": "1 34672U 93036XS  25357.06935685  .00000713  00000+0  25150-3 0  9993",
        "tle_line2": "2 34672  74.0343 286.6106 0024300 356.3890  18.9966 14.36424251653260"
      },
      "geometry": {
        "type": "Point",
        "coordinates": [
          92.87687522702463,
          25.727494451191117
        ]
      }
    },
    {
      "type": "Feature",
      "properties": {
        "norad_id": 34678,
        "name": "COSMOS 2251 DEB",
        "group": "cosmos-2251-debris",
        "lat": 26.42794416132896,
        "lon": -10.654967315840006,
        "alt_km": 772.3956065793409,
        "timestamp": "2025-12-26T05:31:12.901408+00:00",
        "meta_object_name": "COSMOS 2251 DEB",
        "meta_object_id": "1993-036XY",
        "meta_epoch": "2025-12-25T03:07:16.447872",
        "meta_mean_motion": 14.3006716,
        "meta_eccentricity": 0.0024799,
        "meta_inclination": 74.0378,
        "meta_ra_of_asc_node": 343.1657,
        "meta_arg_of_pericenter": 28.4914,
        "meta_mean_anomaly": 98.586,
        "meta_ephemeris_type": 0,
        "meta_classification_type": "U",
        "meta_norad_cat_id": 34678,
        "meta_element_set_no": 999,
        "meta_rev_at_epoch": 87556,
        "meta_bstar": 3.7171e-05,
        "meta_mean_motion_dot": 7.1e-07,
        "meta_mean_motion_ddot": 0,
        "tle_line1": "1 34678U 93036XY  25359.13005148  .00000071  00000+0  37171-4 0  9995",
        "tle_line2": "2 34678  74.0378 343.1657 0024799  28.4914  98.5860 14.30067160875562"
      },
      "geometry": {
        "type": "Point",
        "coordinates": [
          -10.654967315840006,
          26.42794416132896
        ]
      }
    },
    {
      "type": "Feature",
      "properties": {
        "norad_id": 34680,
        "name": "COSMOS 2251 DEB",
        "group": "cosmos-2251-debris",
        "lat": -4.290076736746985,
        "lon": 102.87023933514163,
        "alt_km": 697.6977406951464,
        "timestamp": "2025-12-26T05:31:12.901418+00:00",
        "meta_object_name": "COSMOS 2251 DEB",
        "meta_object_id": "1993-036YA",
        "meta_epoch": "2025-12-25T08:26:00.964320",
        "meta_mean_motion": 14.60752772,
        "meta_eccentricity": 0.0006228,
        "meta_inclination": 74.0438,
        "meta_ra_of_asc_node": 105.7771,
        "meta_arg_of_pericenter": 207.8275,
        "meta_mean_anomaly": 209.3202,
        "meta_ephemeris_type": 0,
        "meta_classification_type": "U",
        "meta_norad_cat_id": 34680,
        "meta_element_set_no": 999,
        "meta_rev_at_epoch": 88512,
        "meta_bstar": 0.0011609,
        "meta_mean_motion_dot": 5.64e-05,
        "meta_mean_motion_ddot": 0,
        "tle_line1": "1 34680U 93036YA  25359.35140005  .00005640  00000+0  11609-2 0  9997",
        "tle_line2": "2 34680  74.0438 105.7771 0006228 207.8275 209.3202 14.60752772885129"
      },
      "geometry": {
        "type": "Point",
        "coordinates": [
          102.87023933514163,
          -4.290076736746985
        ]
      }
    },
    {
      "type": "Feature",
      "properties": {
        "norad_id": 34681,
        "name": "COSMOS 2251 DEB",
        "group": "cosmos-2251-debris",
        "lat": -59.7675892928878,
        "lon": 113.09206813827667,
        "alt_km": 620.2572591754952,
        "timestamp": "2025-12-26T05:31:12.901428+00:00",
        "meta_object_name": "COSMOS 2251 DEB",
        "meta_object_id": "1993-036YB",
        "meta_epoch": "2025-12-25T04:41:29.056416",
        "meta_mean_motion": 14.83490223,
        "meta_eccentricity": 0.00256709,
        "meta_inclination": 74.0618,
        "meta_ra_of_asc_node": 265.7723,
        "meta_arg_of_pericenter": 320.9215,
        "meta_mean_anomaly": 160.5558,
        "meta_ephemeris_type": 0,
        "meta_classification_type": "U",
        "meta_norad_cat_id": 34681,
        "meta_element_set_no": 999,
        "meta_rev_at_epoch": 89455,
        "meta_bstar": 0.0013729625,
        "meta_mean_motion_dot": 0.00011341,
        "meta_mean_motion_ddot": 0,
        "tle_line1": "1 34681U 93036YB  25359.19547519  .00011341  00000+0  13730-2 0  9993",
        "tle_line2": "2 34681  74.0618 265.7723 0025670 320.9215 160.5558 14.83490223894551"
      },
      "geometry": {
        "type": "Point",
        "coordinates": [
          113.09206813827667,
          -59.7675892928878
        ]
      }
    }
  ]
}